ONEWEB-0720             
1 55835U 23029AR  25216.89167670  .00000055  00000+0  10424-3 0  9995
2 55835  87.9237   7.8679 0002045  84.0736 276.0630 13.19724037117123
ONEWEB-0537             
1 56046U 23043A   25216.28725614  .00000038  00000+0  66635-4 0  9994
2 56046  87.9052 291.9290 0001775 101.0406 259.0925 13.16596653117262
ONEWEB-0538             
1 56047U 23043B   25216.66092624  .00000042  00000+0  75577-4 0  9995
2 56047  87.9041 291.8699 0001820  92.8374 267.2965 13.16593558117328
ONEWEB-0546             
1 56048U 23043C   25216.26827024  .00000009  00000+0 -92865-5 0  9996
2 56048  87.9051 291.9261 0001587 117.0940 243.0353 13.16594011117266
ONEWEB-0547             
1 56049U 23043D   25216.30860340  .00000012  00000+0 -24160-5 0  9997
2 56049  87.9268 307.1962 0001946  92.6081 267.5275 13.21824463116365
ONEWEB-0548             
1 56050U 23043E   25216.90156551  .00000077  00000+0  16826-3 0  9995
2 56050  87.9038 291.8296 0002480 103.1124 257.0283 13.16591687117346
ONEWEB-0549             
1 56051U 23043F   25216.67840600  .00000073  00000+0  14535-3 0  9996
2 56051  87.9269 307.1368 0001913  91.0421 269.0932 13.21824678116415
ONEWEB-0550             
1 56052U 23043G   25216.66580801  .00000011  00000+0 -52999-5 0  9991
2 56052  87.9269 307.1330 0002124 103.3931 256.7440 13.21825820116410
ONEWEB-0551             
1 56053U 23043H   25216.68069165 -.00000015  00000+0 -74694-4 0  9999
2 56053  87.9077 322.3601 0001998  93.2319 266.9040 13.15547869114787
ONEWEB-0552             
1 56054U 23043J   25216.28101244  .00000074  00000+0  14744-3 0  9993
2 56054  87.9269 307.2186 0002196  92.8515 267.2870 13.21826996116364
ONEWEB-0553             
1 56055U 23043K   25216.27459576  .00000100  00000+0  22815-3 0  9995
2 56055  87.9045 291.9452 0001869 109.5788 250.5545 13.16596029117276
ONEWEB-0554             
1 56056U 23043L   25216.26194111  .00000079  00000+0  17175-3 0  9994
2 56056  87.9036 291.9743 0002270 103.0146 257.1238 13.16594909117259
ONEWEB-0555             
1 56057U 23043M   25216.90791918  .00000000  00000+0 -34786-4 0  9997
2 56057  87.9045 291.8135 0001834 114.7320 245.4002 13.16593597117343
ONEWEB-0557             
1 56058U 23043N   25216.92216237 -.00000059  00000+0 -18906-3 0  9996
2 56058  87.9037 291.8310 0002864 122.6596 237.4812 13.16594166117340
ONEWEB-0558             
1 56059U 23043P   25216.72889492  .00000055  00000+0  10108-3 0  9994
2 56059  87.9269 307.1255 0001905  85.6071 274.5281 13.21825465116434
ONEWEB-0559             
1 56060U 23043Q   25216.71784068 -.00000047  00000+0 -14615-3 0  9998
2 56060  87.9269 307.1196 0002271  90.7912 269.3482 13.21827035116449
ONEWEB-0566             
1 56061U 23043R   25216.56013953 -.00000015  00000+0 -67318-4 0  9994
2 56061  87.9269 307.1489 0002065  90.0457 270.0914 13.21827414116409
