[{"OBJECT_NAME":"ONEWEB-0720","OBJECT_ID":"2023-029AR","EPOCH":"2025-08-04T21:24:00.866880","MEAN_MOTION":13.19724037,"ECCENTRICITY":0.0002045,"INCLINATION":87.9237,"RA_OF_ASC_NODE":7.8679,"ARG_OF_PERICENTER":84.0736,"MEAN_ANOMALY":276.063,"EPHEMERIS_TYPE":0,"CLASSIFICATION_TYPE":"U","NORAD_CAT_ID":55835,"ELEMENT_SET_NO":999,"REV_AT_EPOCH":11712,"BSTAR":0.00010424,"MEAN_MOTION_DOT":5.5e-7,"MEAN_MOTION_DDOT":0},{"OBJECT_NAME":"ONEWEB-0537","OBJECT_ID":"2023-043A","EPOCH":"2025-08-04T06:53:38.930496","MEAN_MOTION":13.16596653,"ECCENTRICITY":0.0001775,"INCLINATION":87.9052,"RA_OF_ASC_NODE":291.929,"ARG_OF_PERICENTER":101.0406,"MEAN_ANOMALY":259.0925,"EPHEMERIS_TYPE":0,"CLASSIFICATION_TYPE":"U","NORAD_CAT_ID":56046,"ELEMENT_SET_NO":999,"REV_AT_EPOCH":11726,"BSTAR":6.6635e-5,"MEAN_MOTION_DOT":3.8e-7,"MEAN_MOTION_DDOT":0},{"OBJECT_NAME":"ONEWEB-0538","OBJECT_ID":"2023-043B","EPOCH":"2025-08-04T15:51:44.027136","MEAN_MOTION":13.16593558,"ECCENTRICITY":0.000182,"INCLINATION":87.9041,"RA_OF_ASC_NODE":291.8699,"ARG_OF_PERICENTER":92.8374,"MEAN_ANOMALY":267.2965,"EPHEMERIS_TYPE":0,"CLASSIFICATION_TYPE":"U","NORAD_CAT_ID":56047,"ELEMENT_SET_NO":999,"REV_AT_EPOCH":11732,"BSTAR":7.5577e-5,"MEAN_MOTION_DOT":4.2e-7,"MEAN_MOTION_DDOT":0},{"OBJECT_NAME":"ONEWEB-0546","OBJECT_ID":"2023-043C","EPOCH":"2025-08-04T06:26:18.548736","MEAN_MOTION":13.16594011,"ECCENTRICITY":0.0001587,"INCLINATION":87.9051,"RA_OF_ASC_NODE":291.9261,"ARG_OF_PERICENTER":117.094,"MEAN_ANOMALY":243.0353,"EPHEMERIS_TYPE":0,"CLASSIFICATION_TYPE":"U","NORAD_CAT_ID":56048,"ELEMENT_SET_NO":999,"REV_AT_EPOCH":11726,"BSTAR":-9.2865e-6,"MEAN_MOTION_DOT":9.0e-8,"MEAN_MOTION_DDOT":0},{"OBJECT_NAME":"ONEWEB-0547","OBJECT_ID":"2023-043D","EPOCH":"2025-08-04T07:24:23.333760","MEAN_MOTION":13.21824463,"ECCENTRICITY":0.0001946,"INCLINATION":87.9268,"RA_OF_ASC_NODE":307.1962,"ARG_OF_PERICENTER":92.6081,"MEAN_ANOMALY":267.5275,"EPHEMERIS_TYPE":0,"CLASSIFICATION_TYPE":"U","NORAD_CAT_ID":56049,"ELEMENT_SET_NO":999,"REV_AT_EPOCH":11636,"BSTAR":-2.416e-6,"MEAN_MOTION_DOT":1.2e-7,"MEAN_MOTION_DDOT":0},{"OBJECT_NAME":"ONEWEB-0548","OBJECT_ID":"2023-043E","EPOCH":"2025-08-04T21:38:15.260064","MEAN_MOTION":13.16591687,"ECCENTRICITY":0.000248,"INCLINATION":87.9038,"RA_OF_ASC_NODE":291.8296,"ARG_OF_PERICENTER":103.1124,"MEAN_ANOMALY":257.0283,"EPHEMERIS_TYPE":0,"CLASSIFICATION_TYPE":"U","NORAD_CAT_ID":56050,"ELEMENT_SET_NO":999,"REV_AT_EPOCH":11734,"BSTAR":0.00016826,"MEAN_MOTION_DOT":7.7e-7,"MEAN_MOTION_DDOT":0},{"OBJECT_NAME":"ONEWEB-0549","OBJECT_ID":"2023-043F","EPOCH":"2025-08-04T16:16:54.278400","MEAN_MOTION":13.21824678,"ECCENTRICITY":0.0001913,"INCLINATION":87.9269,"RA_OF_ASC_NODE":307.1368,"ARG_OF_PERICENTER":91.0421,"MEAN_ANOMALY":269.0932,"EPHEMERIS_TYPE":0,"CLASSIFICATION_TYPE":"U","NORAD_CAT_ID":56051,"ELEMENT_SET_NO":999,"REV_AT_EPOCH":11641,"BSTAR":0.00014535,"MEAN_MOTION_DOT":7.3e-7,"MEAN_MOTION_DDOT":0},{"OBJECT_NAME":"ONEWEB-0550","OBJECT_ID":"2023-043G","EPOCH":"2025-08-04T15:58:45.812064","MEAN_MOTION":13.2182582,"ECCENTRICITY":0.0002124,"INCLINATION":87.9269,"RA_OF_ASC_NODE":307.133,"ARG_OF_PERICENTER":103.3931,"MEAN_ANOMALY":256.744,"EPHEMERIS_TYPE":0,"CLASSIFICATION_TYPE":"U","NORAD_CAT_ID":56052,"ELEMENT_SET_NO":999,"REV_AT_EPOCH":11641,"BSTAR":-5.2999e-6,"MEAN_MOTION_DOT":1.1e-7,"MEAN_MOTION_DDOT":0},{"OBJECT_NAME":"ONEWEB-0551","OBJECT_ID":"2023-043H","EPOCH":"2025-08-04T16:20:11.758560","MEAN_MOTION":13.15547869,"ECCENTRICITY":0.0001998,"INCLINATION":87.9077,"RA_OF_ASC_NODE":322.3601,"ARG_OF_PERICENTER":93.2319,"MEAN_ANOMALY":266.904,"EPHEMERIS_TYPE":0,"CLASSIFICATION_TYPE":"U","NORAD_CAT_ID":56053,"ELEMENT_SET_NO":999,"REV_AT_EPOCH":11478,"BSTAR":-7.4694e-5,"MEAN_MOTION_DOT":-1.5e-7,"MEAN_MOTION_DDOT":0},{"OBJECT_NAME":"ONEWEB-0552","OBJECT_ID":"2023-043J","EPOCH":"2025-08-04T06:44:39.474816","MEAN_MOTION":13.21826996,"ECCENTRICITY":0.0002196,"INCLINATION":87.9269,"RA_OF_ASC_NODE":307.2186,"ARG_OF_PERICENTER":92.8515,"MEAN_ANOMALY":267.287,"EPHEMERIS_TYPE":0,"CLASSIFICATION_TYPE":"U","NORAD_CAT_ID":56054,"ELEMENT_SET_NO":999,"REV_AT_EPOCH":11636,"BSTAR":0.00014744,"MEAN_MOTION_DOT":7.4e-7,"MEAN_MOTION_DDOT":0},{"OBJECT_NAME":"ONEWEB-0553","OBJECT_ID":"2023-043K","EPOCH":"2025-08-04T06:35:25.073664","MEAN_MOTION":13.16596029,"ECCENTRICITY":0.0001869,"INCLINATION":87.9045,"RA_OF_ASC_NODE":291.9452,"ARG_OF_PERICENTER":109.5788,"MEAN_ANOMALY":250.5545,"EPHEMERIS_TYPE":0,"CLASSIFICATION_TYPE":"U","NORAD_CAT_ID":56055,"ELEMENT_SET_NO":999,"REV_AT_EPOCH":11727,"BSTAR":0.00022815,"MEAN_MOTION_DOT":1.0e-6,"MEAN_MOTION_DDOT":0},{"OBJECT_NAME":"ONEWEB-0554","OBJECT_ID":"2023-043L","EPOCH":"2025-08-04T06:17:11.711904","MEAN_MOTION":13.16594909,"ECCENTRICITY":0.000227,"INCLINATION":87.9036,"RA_OF_ASC_NODE":291.9743,"ARG_OF_PERICENTER":103.0146,"MEAN_ANOMALY":257.1238,"EPHEMERIS_TYPE":0,"CLASSIFICATION_TYPE":"U","NORAD_CAT_ID":56056,"ELEMENT_SET_NO":999,"REV_AT_EPOCH":11725,"BSTAR":0.00017175,"MEAN_MOTION_DOT":7.9e-7,"MEAN_MOTION_DDOT":0},{"OBJECT_NAME":"ONEWEB-0555","OBJECT_ID":"2023-043M","EPOCH":"2025-08-04T21:47:24.217152","MEAN_MOTION":13.16593597,"ECCENTRICITY":0.0001834,"INCLINATION":87.9045,"RA_OF_ASC_NODE":291.8135,"ARG_OF_PERICENTER":114.732,"MEAN_ANOMALY":245.4002,"EPHEMERIS_TYPE":0,"CLASSIFICATION_TYPE":"U","NORAD_CAT_ID":56057,"ELEMENT_SET_NO":999,"REV_AT_EPOCH":11734,"BSTAR":-3.4786e-5,"MEAN_MOTION_DOT":0,"MEAN_MOTION_DDOT":0},{"OBJECT_NAME":"ONEWEB-0557","OBJECT_ID":"2023-043N","EPOCH":"2025-08-04T22:07:54.828768","MEAN_MOTION":13.16594166,"ECCENTRICITY":0.0002864,"INCLINATION":87.9037,"RA_OF_ASC_NODE":291.831,"ARG_OF_PERICENTER":122.6596,"MEAN_ANOMALY":237.4812,"EPHEMERIS_TYPE":0,"CLASSIFICATION_TYPE":"U","NORAD_CAT_ID":56058,"ELEMENT_SET_NO":999,"REV_AT_EPOCH":11734,"BSTAR":-0.00018906,"MEAN_MOTION_DOT":-5.9e-7,"MEAN_MOTION_DDOT":0},{"OBJECT_NAME":"ONEWEB-0558","OBJECT_ID":"2023-043P","EPOCH":"2025-08-04T17:29:36.521088","MEAN_MOTION":13.21825465,"ECCENTRICITY":0.0001905,"INCLINATION":87.9269,"RA_OF_ASC_NODE":307.1255,"ARG_OF_PERICENTER":85.6071,"MEAN_ANOMALY":274.5281,"EPHEMERIS_TYPE":0,"CLASSIFICATION_TYPE":"U","NORAD_CAT_ID":56059,"ELEMENT_SET_NO":999,"REV_AT_EPOCH":11643,"BSTAR":0.00010108,"MEAN_MOTION_DOT":5.5e-7,"MEAN_MOTION_DDOT":0},{"OBJECT_NAME":"ONEWEB-0559","OBJECT_ID":"2023-043Q","EPOCH":"2025-08-04T17:13:41.434752","MEAN_MOTION":13.21827035,"ECCENTRICITY":0.0002271,"INCLINATION":87.9269,"RA_OF_ASC_NODE":307.1196,"ARG_OF_PERICENTER":90.7912,"MEAN_ANOMALY":269.3482,"EPHEMERIS_TYPE":0,"CLASSIFICATION_TYPE":"U","NORAD_CAT_ID":56060,"ELEMENT_SET_NO":999,"REV_AT_EPOCH":11644,"BSTAR":-0.00014615,"MEAN_MOTION_DOT":-4.7e-7,"MEAN_MOTION_DDOT":0},{"OBJECT_NAME":"ONEWEB-0566","OBJECT_ID":"2023-043R","EPOCH":"2025-08-04T13:26:36.055392","MEAN_MOTION":13.21827414,"ECCENTRICITY":0.0002065,"INCLINATION":87.9269,"RA_OF_ASC_NODE":307.1489,"ARG_OF_PERICENTER":90.0457,"MEAN_ANOMALY":270.0914,"EPHEMERIS_TYPE":0,"CLASSIFICATION_TYPE":"U","NORAD_CAT_ID":56061,"ELEMENT_SET_NO":999,"REV_AT_EPOCH":11640,"BSTAR":-6.7318e-5,"MEAN_MOTION_DOT":-1.5e-7,"MEAN_MOTION_DDOT":0}]
